{
  "norad_id": 63500,
  "name": "STARLINK-33838",
  "history": [
    {
      "epoch": "2026-03-28T07:39:01.461888Z",
      "apogee_km": 476.1223252743439,
      "perigee_km": 474.3079688269336,
      "latitude_deg": -3.2077092019192536e-05,
      "longitude_deg": 112.78405818769906,
      "height_km": 476.11673930698834,
      "semi_major_axis_km": 6853.352147050638,
      "eccentricity": 0.00013237,
      "inclination_deg": 53.1595,
      "raan_deg": 53.2811,
      "arg_perigee_deg": 90.2299,
      "mean_anomaly_deg": 269.8853,
      "mean_motion_rev_day": 15.30199974
    },
    {
      "epoch": "2026-03-29T04:01:42.787776Z",
      "apogee_km": 476.069855835025,
      "perigee_km": 474.30032807088264,
      "latitude_deg": -4.777511318439549e-05,
      "longitude_deg": 162.32995439030495,
      "height_km": 476.19049683332366,
      "semi_major_axis_km": 6853.322091952953,
      "eccentricity": 0.0001291,
      "inclination_deg": 53.1597,
      "raan_deg": 49.3361,
      "arg_perigee_deg": 96.9702,
      "mean_anomaly_deg": 263.1445,
      "mean_motion_rev_day": 15.3021004
    }
  ]
}